     2              NAVIGATION DATA                         RINEX VERSION / TYPE
CCRINEXN V1.6.0 UX  CDDIS               26-OCT-16 15:33     PGM / RUN BY / DATE 
IGS BROADCAST EPHEMERIS FILE                                COMMENT             
    0.1211D-07  0.0000D+00 -0.1192D-06  0.0000D+00          ION ALPHA           
    0.9421D+05  0.0000D+00 -0.1966D+06  0.0000D+00          ION BETA            
   -0.372529029846D-08-0.888178419700D-14   405504     1920 DELTA-UTC: A0,A1,T,W
    17                                                      LEAP SECONDS        
                                                            END OF HEADER       
11 16 10 25  6  0  0.0-0.667829997838D-03-0.102318153950D-11 0.000000000000D+00
    0.510000000000D+02-0.366250000000D+02 0.604668048965D-08-0.264981296844D+01
   -0.176765024662D-05 0.168084350880D-01 0.295415520668D-05 0.515368289375D+04
    0.194400000000D+06 0.212341547012D-06 0.980092152041D+00 0.651925802231D-07
    0.898103110171D+00 0.286687500000D+03 0.159019085936D+01-0.870893401839D-08
   -0.271439884458D-10 0.100000000000D+01 0.192000000000D+04 0.000000000000D+00
    0.280000000000D+01 0.000000000000D+00-0.121071934700D-07 0.510000000000D+02
    0.187200000000D+06 0.000000000000D+00 0.000000000000D+00 0.000000000000D+00
12 16 10 25  6  0  0.0 0.389372929931D-03 0.113686837722D-12 0.000000000000D+00
    0.710000000000D+02 0.364687500000D+02 0.367872466222D-08 0.295091264444D+01
    0.173971056938D-05 0.604441587347D-02 0.103432685137D-04 0.515364613915D+04
    0.194400000000D+06-0.409781932831D-07-0.677216151171D+00-0.894069671631D-07
    0.990165305617D+00 0.192593750000D+03 0.783411264635D+00-0.755852912879D-08
    0.114290474943D-10 0.100000000000D+01 0.192000000000D+04 0.000000000000D+00
    0.200000000000D+01 0.000000000000D+00-0.125728547573D-07 0.710000000000D+02
    0.187200000000D+06 0.400000000000D+01 0.000000000000D+00 0.000000000000D+00
13 16 10 25  6  0  0.0-0.512343831360D-04-0.204636307899D-11 0.000000000000D+00
    0.360000000000D+02 0.388750000000D+02 0.455161819346D-08-0.172755686866D+01
    0.212714076042D-05 0.400532921776D-02 0.589527189732D-05 0.515368387032D+04
    0.194400000000D+06-0.372529029846D-07-0.271262090871D+01 0.651925802231D-07
    0.970899445470D+00 0.272343750000D+03 0.192041381548D+01-0.813462452953D-08
    0.208580111516D-09 0.100000000000D+01 0.192000000000D+04 0.000000000000D+00
    0.200000000000D+01 0.000000000000D+00-0.111758708954D-07 0.360000000000D+02
    0.187200000000D+06 0.000000000000D+00 0.000000000000D+00 0.000000000000D+00
14 16 10 25  6  0  0.0-0.418131239712D-04-0.193267624127D-11 0.000000000000D+00
    0.200000000000D+02 0.481250000000D+02 0.476734143605D-08-0.386973218874D+00
    0.255741178989D-05 0.872060970869D-02 0.662170350552D-05 0.515359304810D+04
    0.194400000000D+06-0.763684511185D-07-0.275063342768D+01 0.111758708954D-06
    0.963419943245D+00 0.257187500000D+03-0.194342135633D+01-0.835213361417D-08
    0.306798493674D-09 0.100000000000D+01 0.192000000000D+04 0.000000000000D+00
    0.200000000000D+01 0.000000000000D+00-0.931322574616D-08 0.200000000000D+02
    0.187200000000D+06 0.400000000000D+01 0.000000000000D+00 0.000000000000D+00
15 16 10 25  6  0  0.0-0.332036986947D-03-0.125055521494D-11 0.000000000000D+00
    0.830000000000D+02 0.490625000000D+02 0.544558397329D-08-0.701657050375D+00
    0.270269811153D-05 0.866658193991D-02 0.614114105701D-05 0.515368558502D+04
    0.194400000000D+06 0.171363353729D-06-0.289185974863D+01 0.726431608200D-07
    0.930404906048D+00 0.241687500000D+03 0.518246231424D+00-0.865643200371D-08
    0.286440502825D-09 0.100000000000D+01 0.192000000000D+04 0.000000000000D+00
    0.200000000000D+01 0.000000000000D+00-0.107102096081D-07 0.830000000000D+02
    0.187200000000D+06 0.400000000000D+01 0.000000000000D+00 0.000000000000D+00
17 16 10 25  6  0  0.0-0.200470443815D-03 0.568434188608D-12 0.000000000000D+00
    0.850000000000D+02 0.283750000000D+02 0.444947101386D-08 0.204901367879D-01
    0.156275928020D-05 0.113432351500D-01 0.518374145031D-05 0.515376007462D+04
    0.194400000000D+06-0.726431608200D-07 0.360830334443D+00 0.102445483208D-06
    0.978083581610D+00 0.290875000000D+03-0.191724619993D+01-0.835177615954D-08
    0.127148153117D-09 0.100000000000D+01 0.192000000000D+04 0.000000000000D+00
    0.280000000000D+01 0.000000000000D+00-0.107102096081D-07 0.850000000000D+02
    0.187200000000D+06 0.000000000000D+00 0.000000000000D+00 0.000000000000D+00
18 16 10 25  6  0  0.0 0.570039264858D-03 0.341060513165D-11 0.000000000000D+00
    0.730000000000D+02-0.223750000000D+02 0.509628370924D-08 0.160151222146D+01
   -0.128522515297D-05 0.172555809841D-01 0.114850699902D-04 0.515372850227D+04
    0.194400000000D+06-0.253319740295D-06 0.237164304409D+01-0.363215804100D-06
    0.925281026697D+00 0.139500000000D+03-0.185421697428D+01-0.835320508738D-08
    0.117504894550D-09 0.100000000000D+01 0.192000000000D+04 0.000000000000D+00
    0.200000000000D+01 0.000000000000D+00-0.111758708954D-07 0.730000000000D+02
    0.187200000000D+06 0.400000000000D+01 0.000000000000D+00 0.000000000000D+00
19 16 10 25  6  0  0.0-0.521173700690D-03 0.682121026330D-12 0.000000000000D+00
    0.870000000000D+02 0.192812500000D+02 0.444768533114D-08-0.311641698476D+01
    0.935047864914D-06 0.103814783506D-01 0.444240868092D-05 0.515363255119D+04
    0.194400000000D+06 0.484287738800D-07 0.409184376377D+00-0.219792127609D-06
    0.975216861971D+00 0.298656250000D+03 0.880433777875D+00-0.803926347714D-08
    0.100004164672D-09 0.100000000000D+01 0.192000000000D+04 0.000000000000D+00
    0.200000000000D+01 0.000000000000D+00-0.149011611938D-07 0.870000000000D+02
    0.187200000000D+06 0.000000000000D+00 0.000000000000D+00 0.000000000000D+00
20 16 10 25  6  0  0.0 0.442566350102D-03 0.193267624127D-11 0.000000000000D+00
    0.240000000000D+02-0.123437500000D+02 0.499877964781D-08-0.826870328548D+00
   -0.532716512680D-06 0.474263110664D-02 0.112932175398D-04 0.515360142899D+04
    0.194400000000D+06-0.298023223877D-07 0.232004666074D+01 0.931322574615D-07
    0.926549714606D+00 0.143531250000D+03 0.146866931055D+01-0.831891794489D-08
    0.131791203918D-09 0.100000000000D+01 0.192000000000D+04 0.000000000000D+00
    0.200000000000D+01 0.000000000000D+00-0.838190317154D-08 0.240000000000D+02
    0.187200000000D+06 0.400000000000D+01 0.000000000000D+00 0.000000000000D+00
21 16 10 25  6  0  0.0-0.532932113856D-03-0.113686837722D-12 0.000000000000D+00
    0.470000000000D+02-0.876875000000D+02 0.505735351622D-08 0.255759269007D+01
   -0.459514558315D-05 0.233673625626D-01 0.537931919098D-05 0.515380440521D+04
    0.194400000000D+06 0.264495611191D-06 0.132991389481D+01-0.135973095894D-06
    0.937304874739D+00 0.257500000000D+03-0.174776298576D+01-0.806783605775D-08
   -0.341799951626D-09 0.100000000000D+01 0.192000000000D+04 0.000000000000D+00
    0.200000000000D+01 0.000000000000D+00-0.977888703346D-08 0.470000000000D+02
    0.187200000000D+06 0.400000000000D+01 0.000000000000D+00 0.000000000000D+00
22 16 10 25  6  0  0.0 0.209192279726D-03-0.105728759081D-10 0.000000000000D+00
    0.830000000000D+02-0.190625000000D+02 0.516735809835D-08-0.468696014042D+00
   -0.882893800735D-06 0.734371773433D-02 0.107605010271D-04 0.515369553375D+04
    0.194400000000D+06-0.335276126862D-07 0.237197606861D+01 0.128522515297D-06
    0.923239612293D+00 0.153843750000D+03-0.185362423352D+01-0.842320800328D-08
    0.925038531568D-10 0.100000000000D+01 0.192000000000D+04 0.000000000000D+00
    0.200000000000D+01 0.000000000000D+00-0.176951289177D-07 0.830000000000D+02
    0.187200000000D+06 0.400000000000D+01 0.000000000000D+00 0.000000000000D+00
23 16 10 25  6  0  0.0-0.194505322725D-03-0.125055521494D-11 0.000000000000D+00
    0.410000000000D+02 0.547187500000D+02 0.499877964781D-08-0.120919144745D+01
    0.288896262646D-05 0.111320728902D-01 0.591948628426D-05 0.515359535980D+04
    0.194400000000D+06 0.238418579102D-06-0.283176500352D+01-0.149011611938D-07
    0.945606907043D+00 0.252187500000D+03-0.252453847739D+01-0.834927635230D-08
    0.363229415677D-09 0.100000000000D+01 0.192000000000D+04 0.000000000000D+00
    0.200000000000D+01 0.000000000000D+00-0.200234353542D-07 0.410000000000D+02
    0.187200000000D+06 0.400000000000D+01 0.000000000000D+00 0.000000000000D+00
24 16 10 25  6  0  0.0-0.251173041761D-04-0.568434188608D-12 0.000000000000D+00
    0.790000000000D+02-0.200000000000D+02 0.508449750401D-08-0.177273381826D+01
   -0.120885670185D-05 0.484344502911D-02 0.624731183052D-05 0.515371675301D+04
    0.194400000000D+06 0.763684511185D-07-0.180672144289D+01-0.447034835815D-07
    0.947527580967D+00 0.251750000000D+03 0.395097625128D+00-0.836463413487D-08
   -0.209294432239D-09 0.100000000000D+01 0.192000000000D+04 0.000000000000D+00
    0.200000000000D+01 0.000000000000D+00 0.232830643654D-08 0.790000000000D+02
    0.187200000000D+06 0.400000000000D+01 0.000000000000D+00 0.000000000000D+00
25 16 10 25  6  0  0.0-0.269810669124D-03-0.682121026330D-11 0.000000000000D+00
    0.410000000000D+02 0.296875000000D+02 0.398730894457D-08 0.241491470966D+01
    0.148080289364D-05 0.562872109003D-02 0.106766819954D-04 0.515368724060D+04
    0.194400000000D+06-0.596046447754D-07-0.729906966938D+00-0.104308128357D-06
    0.978233254222D+00 0.180812500000D+03 0.770697422504D+00-0.770710674622D-08
    0.246438836595D-10 0.100000000000D+01 0.192000000000D+04 0.000000000000D+00
    0.200000000000D+01 0.000000000000D+00 0.558793544769D-08 0.410000000000D+02
    0.187200000000D+06 0.400000000000D+01 0.000000000000D+00 0.000000000000D+00
